{
  "type": "FeatureCollection",
  "features": [
    {
      "type": "Feature",
      "properties": {
        "norad_id": 30144,
        "name": "FENGYUN 1C DEB",
        "group": "fengyun-1c-debris",
        "lat": 77.2878692909294,
        "lon": -74.2738410368335,
        "alt_km": 966.4322971980391,
        "timestamp": "2025-12-03T08:58:46.275694+00:00",
        "meta_object_name": "FENGYUN 1C DEB",
        "meta_object_id": "1999-025SZ",
        "meta_epoch": "2025-12-02T12:29:39.543648",
        "meta_mean_motion": 13.91793061,
        "meta_eccentricity": 0.01260725,
        "meta_inclination": 99.0097,
        "meta_ra_of_asc_node": 329.5909,
        "meta_arg_of_pericenter": 318.8143,
        "meta_mean_anomaly": 166.6543,
        "meta_ephemeris_type": 0,
        "meta_classification_type": "U",
        "meta_norad_cat_id": 30144,
        "meta_element_set_no": 999,
        "meta_rev_at_epoch": 95698,
        "meta_bstar": 0.00077423743,
        "meta_mean_motion_dot": 1.007e-05,
        "meta_mean_motion_ddot": 0,
        "tle_line1": "1 30144U 99025SZ  25336.52059657  .00001007  00000+0  77424-3 0  9999",
        "tle_line2": "2 30144  99.0097 329.5909 0126072 318.8143 166.6543 13.91793061956989"
      },
      "geometry": {
        "type": "Point",
        "coordinates": [
          -74.2738410368335,
          77.2878692909294
        ]
      }
    },
    {
      "type": "Feature",
      "properties": {
        "norad_id": 30145,
        "name": "FENGYUN 1C DEB",
        "group": "fengyun-1c-debris",
        "lat": 50.43429970092419,
        "lon": -81.9906123922149,
        "alt_km": 794.5574196683601,
        "timestamp": "2025-12-03T08:58:46.275714+00:00",
        "meta_object_name": "FENGYUN 1C DEB",
        "meta_object_id": "1999-025TA",
        "meta_epoch": "2025-12-03T02:25:01.040736",
        "meta_mean_motion": 14.13834298,
        "meta_eccentricity": 0.0092636,
        "meta_inclination": 99.2708,
        "meta_ra_of_asc_node": 86.3246,
        "meta_arg_of_pericenter": 175.0907,
        "meta_mean_anomaly": 3.2432,
        "meta_ephemeris_type": 0,
        "meta_classification_type": "U",
        "meta_norad_cat_id": 30145,
        "meta_element_set_no": 999,
        "meta_rev_at_epoch": 96059,
        "meta_bstar": 0.0044395,
        "meta_mean_motion_dot": 8.723e-05,
        "meta_mean_motion_ddot": 0,
        "tle_line1": "1 30145U 99025TA  25337.10070649  .00008723  00000+0  44395-2 0  9991",
        "tle_line2": "2 30145  99.2708  86.3246 0092636 175.0907   3.2432 14.13834298960590"
      },
      "geometry": {
        "type": "Point",
        "coordinates": [
          -81.9906123922149,
          50.43429970092419
        ]
      }
    },
    {
      "type": "Feature",
      "properties": {
        "norad_id": 30146,
        "name": "FENGYUN 1C DEB",
        "group": "fengyun-1c-debris",
        "lat": -59.44184021971402,
        "lon": 152.13602249816725,
        "alt_km": 1061.4607861931609,
        "timestamp": "2025-12-03T08:58:46.275725+00:00",
        "meta_object_name": "FENGYUN 1C DEB",
        "meta_object_id": "1999-025TB",
        "meta_epoch": "2025-12-03T01:13:30.770112",
        "meta_mean_motion": 13.86572233,
        "meta_eccentricity": 0.0178737,
        "meta_inclination": 98.02,
        "meta_ra_of_asc_node": 138.0437,
        "meta_arg_of_pericenter": 149.7085,
        "meta_mean_anomaly": 337.0393,
        "meta_ephemeris_type": 0,
        "meta_classification_type": "U",
        "meta_norad_cat_id": 30146,
        "meta_element_set_no": 999,
        "meta_rev_at_epoch": 95283,
        "meta_bstar": 0.00091047,
        "meta_mean_motion_dot": 1.166e-05,
        "meta_mean_motion_ddot": 0,
        "tle_line1": "1 30146U 99025TB  25337.05105058  .00001166  00000+0  91047-3 0  9990",
        "tle_line2": "2 30146  98.0200 138.0437 0178737 149.7085 337.0393 13.86572233952833"
      },
      "geometry": {
        "type": "Point",
        "coordinates": [
          152.13602249816725,
          -59.44184021971402
        ]
      }
    },
    {
      "type": "Feature",
      "properties": {
        "norad_id": 30148,
        "name": "FENGYUN 1C DEB",
        "group": "fengyun-1c-debris",
        "lat": -76.40849285043312,
        "lon": -97.64344625254333,
        "alt_km": 863.9067866311234,
        "timestamp": "2025-12-03T08:58:46.275735+00:00",
        "meta_object_name": "FENGYUN 1C DEB",
        "meta_object_id": "1999-025TD",
        "meta_epoch": "2025-12-02T23:40:52.709952",
        "meta_mean_motion": 13.88451209,
        "meta_eccentricity": 0.0134783,
        "meta_inclination": 99.5453,
        "meta_ra_of_asc_node": 126.0634,
        "meta_arg_of_pericenter": 222.5829,
        "meta_mean_anomaly": 261.2361,
        "meta_ephemeris_type": 0,
        "meta_classification_type": "U",
        "meta_norad_cat_id": 30148,
        "meta_element_set_no": 999,
        "meta_rev_at_epoch": 95381,
        "meta_bstar": 0.0011371,
        "meta_mean_motion_dot": 1.42e-05,
        "meta_mean_motion_ddot": 0,
        "tle_line1": "1 30148U 99025TD  25336.98672118  .00001420  00000+0  11371-2 0  9993",
        "tle_line2": "2 30148  99.5453 126.0634 0134783 222.5829 261.2361 13.88451209953819"
      },
      "geometry": {
        "type": "Point",
        "coordinates": [
          -97.64344625254333,
          -76.40849285043312
        ]
      }
    },
    {
      "type": "Feature",
      "properties": {
        "norad_id": 30150,
        "name": "FENGYUN 1C DEB",
        "group": "fengyun-1c-debris",
        "lat": 75.16890812270285,
        "lon": -29.542132688719953,
        "alt_km": 951.0226061711428,
        "timestamp": "2025-12-03T08:58:46.275745+00:00",
        "meta_object_name": "FENGYUN 1C DEB",
        "meta_object_id": "1999-025TF",
        "meta_epoch": "2025-12-03T04:09:05.459040",
        "meta_mean_motion": 13.86575879,
        "meta_eccentricity": 0.0146723,
        "meta_inclination": 98.9941,
        "meta_ra_of_asc_node": 113.5293,
        "meta_arg_of_pericenter": 2.1277,
        "meta_mean_anomaly": 174.4152,
        "meta_ephemeris_type": 0,
        "meta_classification_type": "U",
        "meta_norad_cat_id": 30150,
        "meta_element_set_no": 999,
        "meta_rev_at_epoch": 95325,
        "meta_bstar": 0.00058791,
        "meta_mean_motion_dot": 7.01e-06,
        "meta_mean_motion_ddot": 0,
        "tle_line1": "1 30150U 99025TF  25337.17297985  .00000701  00000+0  58791-3 0  9992",
        "tle_line2": "2 30150  98.9941 113.5293 0146723   2.1277 174.4152 13.86575879953254"
      },
      "geometry": {
        "type": "Point",
        "coordinates": [
          -29.542132688719953,
          75.16890812270285
        ]
      }
    },
    {
      "type": "Feature",
      "properties": {
        "norad_id": 30151,
        "name": "FENGYUN 1C DEB",
        "group": "fengyun-1c-debris",
        "lat": -25.218171071109076,
        "lon": -10.016650080873712,
        "alt_km": 850.0609966728043,
        "timestamp": "2025-12-03T08:58:46.275756+00:00",
        "meta_object_name": "FENGYUN 1C DEB",
        "meta_object_id": "1999-025TG",
        "meta_epoch": "2025-12-03T00:43:17.164992",
        "meta_mean_motion": 13.84448896,
        "meta_eccentricity": 0.0163271,
        "meta_inclination": 99.0635,
        "meta_ra_of_asc_node": 345.34,
        "meta_arg_of_pericenter": 304.9779,
        "meta_mean_anomaly": 114.6215,
        "meta_ephemeris_type": 0,
        "meta_classification_type": "U",
        "meta_norad_cat_id": 30151,
        "meta_element_set_no": 999,
        "meta_rev_at_epoch": 95111,
        "meta_bstar": 0.00089012,
        "meta_mean_motion_dot": 1.062e-05,
        "meta_mean_motion_ddot": 0,
        "tle_line1": "1 30151U 99025TG  25337.03005978  .00001062  00000+0  89012-3 0  9998",
        "tle_line2": "2 30151  99.0635 345.3400 0163271 304.9779 114.6215 13.84448896951114"
      },
      "geometry": {
        "type": "Point",
        "coordinates": [
          -10.016650080873712,
          -25.218171071109076
        ]
      }
    },
    {
      "type": "Feature",
      "properties": {
        "norad_id": 30152,
        "name": "FENGYUN 1C DEB",
        "group": "fengyun-1c-debris",
        "lat": 43.627164298438764,
        "lon": -173.5278255126532,
        "alt_km": 854.1264916213177,
        "timestamp": "2025-12-03T08:58:46.275766+00:00",
        "meta_object_name": "FENGYUN 1C DEB",
        "meta_object_id": "1999-025TH",
        "meta_epoch": "2025-12-03T03:36:35.722080",
        "meta_mean_motion": 13.96585453,
        "meta_eccentricity": 0.0160981,
        "meta_inclination": 99.0808,
        "meta_ra_of_asc_node": 195.0199,
        "meta_arg_of_pericenter": 111.8172,
        "meta_mean_anomaly": 250.0202,
        "meta_ephemeris_type": 0,
        "meta_classification_type": "U",
        "meta_norad_cat_id": 30152,
        "meta_element_set_no": 999,
        "meta_rev_at_epoch": 95244,
        "meta_bstar": 0.002815,
        "meta_mean_motion_dot": 4.306e-05,
        "meta_mean_motion_ddot": 0,
        "tle_line1": "1 30152U 99025TH  25337.15041345  .00004306  00000+0  28150-2 0  9999",
        "tle_line2": "2 30152  99.0808 195.0199 0160981 111.8172 250.0202 13.96585453952441"
      },
      "geometry": {
        "type": "Point",
        "coordinates": [
          -173.5278255126532,
          43.627164298438764
        ]
      }
    }
  ]
}